STARLINK-5813           
1 55790U 23028BB  26068.73602869  .00000153  00000+0  20649-4 0  9997
2 55790  70.0005 204.3170 0003099 270.2686  89.8118 14.98330414167038
SATELIOT_3              
1 60552U 24149CN  26068.79802274  .00002865  00000+0  25003-3 0  9992
2 60552  97.6866 147.0596 0005831  63.3535 296.8284 14.97601684 85206
