[{"OBJECT_NAME":"STARLINK-5813","OBJECT_ID":"2023-028BB","EPOCH":"2026-03-09T17:39:52.878816","MEAN_MOTION":14.98330415,"ECCENTRICITY":0.00030994,"INCLINATION":70.0005,"RA_OF_ASC_NODE":204.317,"ARG_OF_PERICENTER":270.2686,"MEAN_ANOMALY":89.8118,"EPHEMERIS_TYPE":0,"CLASSIFICATION_TYPE":"U","NORAD_CAT_ID":55790,"ELEMENT_SET_NO":999,"REV_AT_EPOCH":16703,"BSTAR":2.0648863e-5,"MEAN_MOTION_DOT":1.53e-6,"MEAN_MOTION_DDOT":0},{"OBJECT_NAME":"SATELIOT_3","OBJECT_ID":"2024-149CN","EPOCH":"2026-03-09T19:09:09.165600","MEAN_MOTION":14.97601684,"ECCENTRICITY":0.00058308,"INCLINATION":97.6866,"RA_OF_ASC_NODE":147.0596,"ARG_OF_PERICENTER":63.3535,"MEAN_ANOMALY":296.8284,"EPHEMERIS_TYPE":0,"CLASSIFICATION_TYPE":"U","NORAD_CAT_ID":60552,"ELEMENT_SET_NO":999,"REV_AT_EPOCH":8520,"BSTAR":0.00025002978,"MEAN_MOTION_DOT":2.865e-5,"MEAN_MOTION_DDOT":0}]
